GF3B
1 49495U 21109A   22138.87717450  .00000038  00000+0  24774-4 0  9997
2 49495  98.4137 146.6799 0001292  77.0924 283.0416 14.42212940 25505
GF3C
1 52200U 22035A   22138.85004363  .00000025  00000+0  20695-4 0  9998
2 52200  98.4156 147.2179 0001486  74.2606 285.8747 14.42211139  6048
ZY02E
1 50465U 21131A   22138.49905026  .00000082  00000+0  43878-4 0  9992
2 50465  98.5736 214.9592 0001290  84.9157 275.2179 14.35344832 20572
DAQI
1 52257U 22039A   22138.67716070  .00000326  00000+0  81285-4 0  9995
2 52257  98.1369  79.8408 0002253 142.5664 217.5698 14.57679838  4791
SCSY
1 49315U 21091A   22138.78340384  .00012890  00000+0  57862-3 0  9998
2 49315  97.4678 327.2284 0015847 243.4298 214.5099 15.21199642 32858
GF5B
1 49122U 21079A   22138.86959066  .00000226  00000+0  59607-4 0  9992
2 49122  98.2519 213.5539 0001186 171.3232 188.7983 14.57705804 36966
LT-1A
1 51284U 22007A   22138.55921291  .00000053  00000+0  11543-4 0  9996
2 51284  97.8087 146.3462 0001548  84.9737 275.1639 14.88417015 16754
LT-1B
1 51822U 22018A   22137.62644941 -.00000056  00000+0 -14024-6 0  9991
2 51822  97.8083 145.4293 0001523  83.2824 276.8586 14.88416355 11842
GF4
1 41194U 15083A   22138.46130469 -.00000333  00000+0  00000+0 0  9993
2 41194   0.0673 279.9473 0005326 258.5689 329.3855  1.00271372 23572
CSES
1 43194U 18015C   22137.47495633  .00008482  00000+0  38931-3 0  9990
2 43194  97.5127 268.2786 0011690 197.7131 245.2315 15.20607385237910
ZY 3
1 38046U 12001A   22138.77975925  .00007449  00000+0  33672-3 0  9999
2 38046  97.3403 210.4376 0003117 128.6349  19.3887 15.21219968575093
ZY02C
1 38038U 11079A   22138.80409577  .00000214  00000+0  90068-4 0  9999
2 38038  98.5901 203.5545 0007048   4.1030 356.0209 14.35371608545239
HJ1C
1 38997U 12064A   22138.82922662  .00026346  00000+0  45312-3 0  9990
2 38997  97.0845 166.3651 0006279 346.7801 186.0765 15.51068797533915
HJ1B
1 33321U 08041B   22138.50504483  .00001154  00000+0  16658-3 0  9999
2 33321  97.6973 176.4687 0034225 350.1620   9.8922 14.77681679737965
HJ1A
1 33320U 08041A   22138.83207718  .00000533  00000+0  80856-4 0  9997
2 33320  97.6798 173.2766 0020392 332.4664  27.5464 14.77821429738017
SJ9B
1 38861U 12056B   22138.83694692  .00001289  00000+0  16829-3 0  9991
2 38861  97.5989 173.2281 0019670  98.6909 261.6544 14.81965414518413
SJ9A
1 38860U 12056A   22138.85872458  .00000749  00000+0  10498-3 0  9996
2 38860  97.5920 162.6992 0030601 107.0302 253.4273 14.79911165518012
CB04
1 40336U 14079A   22138.78968681  .00000109  00000+0  53046-4 0  9997
2 40336  98.4830 213.0974 0001485 114.0241 246.1096 14.35447793390150
GF2
1 40118U 14049A   22138.84053436  .00000947  00000+0  12967-3 0  9998
2 40118  97.7629 208.2455 0007849  56.2325 303.9640 14.80674519418714
GF1
1 39150U 13018A   22138.81642673  .00000584  00000+0  90546-4 0  9998
2 39150  97.7888 205.7746 0019592  18.2787 341.9126 14.76601219488369
GF3
1 41727U 16049A   22138.84382885  .00000043  00000+0  26248-4 0  9995
2 41727  98.4087 147.5649 0001803  67.8317 292.3068 14.42214278303820
ZY302
1 41556U 16033A   22138.74090914  .00006227  00000+0  28166-3 0  9996
2 41556  97.5373 207.4108 0004542  49.5078 103.4070 15.21271517331382
ZY303
1 45939U 20051A   22138.49663002  .00103880  00000+0  45931-2 0  9997
2 45939  97.4262 217.6677 0010440 160.1175 209.7607 15.21201593100717
ZY02D
1 44528U 19059A   22138.67721258  .00000183  00000+0  78868-4 0  9993
2 44528  98.4816 216.8145 0000623 112.6259 247.4998 14.35369860140514
CB04A
1 44883U 19093E   22138.69251242  .00001009  00000+0  13521-3 0  9990
2 44883  97.8943 218.5235 0001461  96.3070 263.8324 14.81537384130389
GF7
1 44703U 19072A   22138.81490346  .00004876  00000+0  22002-3 0  9991
2 44703  97.4062 217.8790 0007672 253.9866 242.4142 15.21437801141044
HJ2B
1 46479U 20067B   22138.77414457  .00002051  00000+0  30204-3 0  9999
2 46479  97.9944 221.0975 0001650 106.5140 253.5154 14.76452857 88335
HJ2A
1 46478U 20067A   22138.87536136  .00000705  00000+0  10852-3 0  9999
2 46478  97.9921 220.9450 0002188  75.3561 284.7889 14.76486469 88340
GFDM
1 45856U 20042A   22138.46218958  .00000772  00000+0  11746-3 0  9992
2 45856  97.9442 214.8620 0013656 222.4808 137.5359 14.76710245100994
GF1B
1 43262U 18031D   22138.78961035  .00000881  00000+0  13357-3 0  9993
2 43262  97.8998 216.0180 0005785 119.2269 240.9519 14.76526064222751
GF1C
1 43259U 18031A   22138.83593048  .00000776  00000+0  11859-3 0  9998
2 43259  97.8997 216.0611 0005288 100.3330 259.8474 14.76521512222777
GF1D
1 43260U 18031B   22138.81420586  .00001210  00000+0  18083-3 0  9994
2 43260  97.8984 216.0117 0006471 160.2014 199.9327 14.76516783222769
GJ1A
1 41907U 16083A   22138.78445513  .00006543  00000+0  33285-3 0  9993
2 41907  97.4817 225.9751 0014618 333.7139 179.3618 15.17080673297842
GJ1B
1 41908U 16083B   22138.82375951  .00006353  00000+0  32317-3 0  9991
2 41908  97.3712 208.0522 0012352 327.4946 141.5998 15.17114532297858
GJ1C
1 43099U 18002A   22138.74488360  .00008730  00000+0  44159-3 0  9995
2 43099  97.4427 217.7979 0005522 191.6013 267.5795 15.17256579240798
GJ1D
1 43100U 18002B   22138.79882083  .00005844  00000+0  29819-3 0  9992
2 43100  97.4438 218.0234 0001817 102.2886  45.6859 15.17105656240807
GF6
1 43484U 18048A   22138.75326505  .00000879  00000+0  13343-3 0  9993
2 43484  97.9286 219.5958 0007912 307.5732  52.4746 14.76488497213452